CTC2_L_00418016-03
1 33369U 25941WV  26070.40847222  .00000000  00000+0  00000-0 0  9998
2 33369  95.0000 180.0000 0000000   0.0000   0.0000 12.65579349    11
CTC2_L_00418016-04
1 33370U 23561PC  26070.40847222  .00000000  00000+0  00000-0 0  9996
2 33370  95.0000 180.0000 0000000   0.0000  90.0000 12.65579349    12
CTC2_L_00418017-01
1 33371U 22409RP  26070.40847222  .00000000  00000+0  00000-0 0  9997
2 33371  95.0000 192.0000 0000000   0.0000 192.0000 12.65579349    19
CTC2_L_00418017-02
1 33372U 26398VL  26070.40847222  .00000000  00000+0  00000-0 0  9999
2 33372  95.0000 192.0000 0000000   0.0000 282.0000 12.65579349    10
CTC2_L_00418017-03
1 33373U 26033KP  26070.40847222  .00000000  00000+0  00000-0 0  9996
2 33373  95.0000 192.0000 0000000   0.0000  12.0000 12.65579349    12
CTC2_L_00418017-04
1 33374U 22626LU  26070.40847222  .00000000  00000+0  00000-0 0  9991
2 33374  95.0000 192.0000 0000000   0.0000 102.0000 12.65579349    13
CTC2_L_00418018-01
1 33375U 25687BM  26070.40847222  .00000000  00000+0  00000-0 0  9992
2 33375  95.0000 204.0000 0000000   0.0000 204.0000 12.65579349    11
CTC2_L_00418018-02
1 33376U 24800EH  26070.40847222  .00000000  00000+0  00000-0 0  9999
2 33376  95.0000 204.0000 0000000   0.0000 294.0000 12.65579349    11
CTC2_L_00418018-03
1 33377U 23999RM  26070.40847222  .00000000  00000+0  00000-0 0  9998
2 33377  95.0000 204.0000 0000000   0.0000  24.0000 12.65579349    13
CTC2_L_00418018-04
1 33378U 22944M   26070.40847222  .00000000  00000+0  00000-0 0  9998
2 33378  95.0000 204.0000 0000000   0.0000 114.0000 12.65579349    14
CTC2_L_00418019-01
1 33379U 25537PH  26070.40847222  .00000000  00000+0  00000-0 0  9990
2 33379  95.0000 216.0000 0000000   0.0000 216.0000 12.65579349    11
CTC2_L_00418019-02
1 33380U 26267FY  26070.40847222  .00000000  00000+0  00000-0 0  9993
2 33380  95.0000 216.0000 0000000   0.0000 306.0000 12.65579349    13
CTC2_L_00418019-03
1 33381U 22540EO  26070.40847222  .00000000  00000+0  00000-0 0  9994
2 33381  95.0000 216.0000 0000000   0.0000  36.0000 12.65579349    14
CTC2_L_00418019-04
1 33382U 26834KD  26070.40847222  .00000000  00000+0  00000-0 0  9995
2 33382  95.0000 216.0000 0000000   0.0000 126.0000 12.65579349    15
CTC2_L_00418020-01
1 33383U 23284GM  26070.40847222  .00000000  00000+0  00000-0 0  9992
2 33383  95.0000 228.0000 0000000   0.0000 228.0000 12.65579349    12
CTC2_L_00418020-02
1 33384U 23465NZ  26070.40847222  .00000000  00000+0  00000-0 0  9994
2 33384  95.0000 228.0000 0000000   0.0000 318.0000 12.65579349    13
CTC2_L_00418020-03
1 33385U 22951HP  26070.40847222  .00000000  00000+0  00000-0 0  9994
2 33385  95.0000 228.0000 0000000   0.0000  48.0000 12.65579349    14
CTC2_L_00418020-04
1 33386U 24595MJ  26070.40847222  .00000000  00000+0  00000-0 0  9991
2 33386  95.0000 228.0000 0000000   0.0000 138.0000 12.65579349    15
CTC2_L_00418021-01
1 33387U 22128EN  26070.40847222  .00000000  00000+0  00000-0 0  9992
2 33387  95.0000 240.0000 0000000   0.0000 240.0000 12.65579349    14
CTC2_L_00418021-02
1 33388U 23388FU  26070.40847222  .00000000  00000+0  00000-0 0  9992
2 33388  95.0000 240.0000 0000000   0.0000 330.0000 12.65579349    15
CTC2_L_00418021-03
1 33389U 24950DJ  26070.40847222  .00000000  00000+0  00000-0 0  9999
2 33389  95.0000 240.0000 0000000   0.0000  60.0000 12.65579349    16
CTC2_L_00418021-04
1 33390U 23661HW  26070.40847222  .00000000  00000+0  00000-0 0  9999
2 33390  95.0000 240.0000 0000000   0.0000 150.0000 12.65579349    18
CTC2_L_00418022-01
1 33391U 26743VZ  26070.40847222  .00000000  00000+0  00000-0 0  9994
2 33391  95.0000 252.0000 0000000   0.0000 252.0000 12.65579349    15
CTC2_L_00418022-02
1 33392U 23188EU  26070.40847222  .00000000  00000+0  00000-0 0  9995
2 33392  95.0000 252.0000 0000000   0.0000 342.0000 12.65579349    16
CTC2_L_00418022-03
1 33393U 22723LU  26070.40847222  .00000000  00000+0  00000-0 0  9990
2 33393  95.0000 252.0000 0000000   0.0000  72.0000 12.65579349    17
CTC2_L_00418022-04
1 33394U 24557WT  26070.40847222  .00000000  00000+0  00000-0 0  9998
2 33394  95.0000 252.0000 0000000   0.0000 162.0000 12.65579349    18
CTC2_L_00418023-01
1 33395U 23161NZ  26070.40847222  .00000000  00000+0  00000-0 0  9999
2 33395  95.0000 264.0000 0000000   0.0000 264.0000 12.65579349    15
CTC2_L_00418023-02
1 33396U 24855ZJ  26070.40847222  .00000000  00000+0  00000-0 0  9991
2 33396  95.0000 264.0000 0000000   0.0000 354.0000 12.65579349    16
CTC2_L_00418023-03
1 33397U 23744ZW  26070.40847222  .00000000  00000+0  00000-0 0  9998
2 33397  95.0000 264.0000 0000000   0.0000  84.0000 12.65579349    17
CTC2_L_00418023-04
1 33398U 26635FS  26070.40847222  .00000000  00000+0  00000-0 0  9991
2 33398  95.0000 264.0000 0000000   0.0000 174.0000 12.65579349    18
CTC2_L_00418024-01
1 33399U 25209ZR  26070.40847222  .00000000  00000+0  00000-0 0  9998
2 33399  95.0000 276.0000 0000000   0.0000 276.0000 12.65579349    15
CTC2_L_00418024-02
1 33400U 25942AD  26070.40847222  .00000000  00000+0  00000-0 0  9995
2 33400  95.0000 276.0000 0000000   0.0000   6.0000 12.65579349    19
CTC2_L_00418024-03
1 33401U 25710IR  26070.40847222  .00000000  00000+0  00000-0 0  9999
2 33401  95.0000 276.0000 0000000   0.0000  96.0000 12.65579349    19
CTC2_L_00418024-04
1 33402U 23340HD  26070.40847222  .00000000  00000+0  00000-0 0  9997
2 33402  95.0000 276.0000 0000000   0.0000 186.0000 12.65579349    10
CTC2_L_00418025-01
1 33403U 22539S   26070.40847222  .00000000  00000+0  00000-0 0  9997
2 33403  95.0000 288.0000 0000000   0.0000 288.0000 12.65579349    17
CTC2_L_00418025-02
1 33404U 24934EH  26070.40847222  .00000000  00000+0  00000-0 0  9999
2 33404  95.0000 288.0000 0000000   0.0000  18.0000 12.65579349    19
CTC2_L_00418025-03
1 33405U 22163IV  26070.40847222  .00000000  00000+0  00000-0 0  9992
2 33405  95.0000 288.0000 0000000   0.0000 108.0000 12.65579349    10
CTC2_L_00418025-04
1 33406U 22282LF  26070.40847222  .00000000  00000+0  00000-0 0  9995
2 33406  95.0000 288.0000 0000000   0.0000 198.0000 12.65579349    10
CTC2_L_00418026-01
1 33407U 25961KZ  26070.40847222  .00000000  00000+0  00000-0 0  9993
2 33407  95.0000 300.0000 0000000   0.0000 300.0000 12.65579349    11
CTC2_L_00418026-02
1 33408U 24364VK  26070.40847222  .00000000  00000+0  00000-0 0  9990
2 33408  95.0000 300.0000 0000000   0.0000  30.0000 12.65579349    12
CTC2_L_00418026-03
1 33409U 22651AZ  26070.40847222  .00000000  00000+0  00000-0 0  9998
2 33409  95.0000 300.0000 0000000   0.0000 120.0000 12.65579349    13
CTC2_L_00418026-04
1 33410U 26579IA  26070.40847222  .00000000  00000+0  00000-0 0  9993
2 33410  95.0000 300.0000 0000000   0.0000 210.0000 12.65579349    15
CTC2_L_00418027-01
1 33411U 22796DZ  26070.40847222  .00000000  00000+0  00000-0 0  9991
2 33411  95.0000 312.0000 0000000   0.0000 312.0000 12.65579349    12
CTC2_L_00418027-02
1 33412U 22604AQ  26070.40847222  .00000000  00000+0  00000-0 0  9990
2 33412  95.0000 312.0000 0000000   0.0000  42.0000 12.65579349    13
CTC2_L_00418027-03
1 33413U 22791TA  26070.40847222  .00000000  00000+0  00000-0 0  9998
2 33413  95.0000 312.0000 0000000   0.0000 132.0000 12.65579349    14
CTC2_L_00418027-04
1 33414U 26398VD  26070.40847222  .00000000  00000+0  00000-0 0  9996
2 33414  95.0000 312.0000 0000000   0.0000 222.0000 12.65579349    15
CTC2_L_00418028-01
1 33415U 23315QE  26070.40847222  .00000000  00000+0  00000-0 0  9993
2 33415  95.0000 324.0000 0000000   0.0000 324.0000 12.65579349    12
CTC2_L_00418028-02
1 33416U 25313HW  26070.40847222  .00000000  00000+0  00000-0 0  9994
2 33416  95.0000 324.0000 0000000   0.0000  54.0000 12.65579349    13
CTC2_L_00418028-03
1 33417U 22730GS  26070.40847222  .00000000  00000+0  00000-0 0  9995
2 33417  95.0000 324.0000 0000000   0.0000 144.0000 12.65579349    14
CTC2_L_00418028-04
1 33418U 24096GR  26070.40847222  .00000000  00000+0  00000-0 0  9993
2 33418  95.0000 324.0000 0000000   0.0000 234.0000 12.65579349    15
CTC2_L_00418029-01
1 33419U 22524M   26070.40847222  .00000000  00000+0  00000-0 0  9998
2 33419  95.0000 336.0000 0000000   0.0000 336.0000 12.65579349    12
CTC2_L_00418029-02
1 33420U 22597YP  26070.40847222  .00000000  00000+0  00000-0 0  9990
2 33420  95.0000 336.0000 0000000   0.0000  66.0000 12.65579349    14
CTC2_L_00418029-03
1 33421U 26838UY  26070.40847222  .00000000  00000+0  00000-0 0  9993
2 33421  95.0000 336.0000 0000000   0.0000 156.0000 12.65579349    15
CTC2_L_00418029-04
1 33422U 22748XX  26070.40847222  .00000000  00000+0  00000-0 0  9990
2 33422  95.0000 336.0000 0000000   0.0000 246.0000 12.65579349    16
CTC2_L_00418030-01
1 33423U 26274BZ  26070.40847222  .00000000  00000+0  00000-0 0  9999
2 33423  95.0000 348.0000 0000000   0.0000 348.0000 12.65579349    13
CTC2_L_00418030-02
1 33424U 23130SA  26070.40847222  .00000000  00000+0  00000-0 0  9998
2 33424  95.0000 348.0000 0000000   0.0000  78.0000 12.65579349    14
CTC2_L_00418030-03
1 33425U 22943LQ  26070.40847222  .00000000  00000+0  00000-0 0  9990
2 33425  95.0000 348.0000 0000000   0.0000 168.0000 12.65579349    15
CTC2_L_00418030-04
1 33426U 26401QB  26070.40847222  .00000000  00000+0  00000-0 0  9994
2 33426  95.0000 348.0000 0000000   0.0000 258.0000 12.65579349    16
